COMMENT,ORIGINATOR,NORAD_CAT_ID,OBJECT_NAME,OBJECT_TYPE,CLASSIFICATION_TYPE,INTLDES,EPOCH,EPOCH_MICROSECONDS,MEAN_MOTION,ECCENTRICITY,INCLINATION,RA_OF_ASC_NODE,ARG_OF_PERICENTER,MEAN_ANOMALY,EPHEMERIS_TYPE,ELEMENT_SET_NO,REV_AT_EPOCH,BSTAR,MEAN_MOTION_DOT,MEAN_MOTION_DDOT,FILE,TLE_LINE0,TLE_LINE1,TLE_LINE2,OBJECT_ID,OBJECT_NUMBER,SEMIMAJOR_AXIS,PERIOD,APOGEE,PERIGEE,DECAYED
GENERATED VIA SPACETRACK.ORG API,18 SPCS,38778,ASTRA 2F,PAYLOAD,U,12051A,2023-06-06 02:27:42,728832,1.00269961,9.61e-05,0.0632,248.4338,267.766,163.1508,0,999,3919,0,1.59e-06,0,3925988,0 ASTRA 2F,1 38778U 12051A   23157.10257788  .00000159  00000-0  00000+0 0  9992,2 38778   0.0632 248.4338 0000961 267.7660 163.1508  1.00269961 39198,2012-051A,38778,42165.243,1436.123,35791.16,35783.056,0
GENERATED VIA SPACETRACK.ORG API,18 SPCS,38778,ASTRA 2F,PAYLOAD,U,12051A,2023-06-06 11:20:42,684000,1.00270112,9.81e-05,0.0623,247.7911,269.7985,295.3735,0,999,3003,0,1.57e-06,0,3926325,0 ASTRA 2F,1 38778U 12051A   23157.47271625  .00000157  00000-0  00000-0 0  9997,2 38778   0.0623 247.7911 0000981 269.7985 295.3735  1.00270112 30035,2012-051A,38778,42165.201,1436.121,35791.202,35782.93,0
GENERATED VIA SPACETRACK.ORG API,18 SPCS,38778,ASTRA 2F,PAYLOAD,U,12051A,2023-06-06 16:28:59,545056,1.00270198,9.97e-05,0.062,247.5947,270.3795,12.2688,0,999,3003,0,1.56e-06,0,3926571,0 ASTRA 2F,1 38778U 12051A   23157.68680029  .00000156  00000-0  00000-0 0  9991,2 38778   0.0620 247.5947 0000997 270.3795  12.2688  1.00270198 30030,2012-051A,38778,42165.177,1436.12,35791.246,35782.838,0
GENERATED VIA SPACETRACK.ORG API,18 SPCS,38778,ASTRA 2F,PAYLOAD,U,12051A,2023-06-07 07:57:42,539904,1.00270475,0.0001039,0.0604,246.5492,272.6334,243.8724,0,999,3920,0,1.54e-06,0,3927091,0 ASTRA 2F,1 38778U 12051A   23158.33174236  .00000154  00000-0  00000+0 0  9999,2 38778   0.0604 246.5492 0001039 272.6334 243.8724  1.00270475 39207,2012-051A,38778,42165.099,1436.116,35791.345,35782.583,0
GENERATED VIA SPACETRACK.ORG API,18 SPCS,38778,ASTRA 2F,PAYLOAD,U,12051A,2023-06-07 07:57:42,539904,1.00270475,0.0001039,0.0604,246.5492,272.6334,243.8724,0,999,3003,0,1.54e-06,0,3927174,0 ASTRA 2F,1 38778U 12051A   23158.33174236  .00000154  00000-0  00000-0 0  9990,2 38778   0.0604 246.5492 0001039 272.6334 243.8724  1.00270475 30039,2012-051A,38778,42165.099,1436.116,35791.345,35782.583,0
GENERATED VIA SPACETRACK.ORG API,18 SPCS,38778,ASTRA 2F,PAYLOAD,U,12051A,2023-06-07 20:00:34,53408,1.00270696,0.000107,0.0593,245.6677,274.7807,63.8139,0,999,3004,0,1.52e-06,0,3927436,0 ASTRA 2F,1 38778U 12051A   23158.83372747  .00000152  00000-0  00000-0 0  9990,2 38778   0.0593 245.6677 0001070 274.7807  63.8139  1.00270696 30040,2012-051A,38778,42165.037,1436.113,35791.414,35782.391,0
GENERATED VIA SPACETRACK.ORG API,18 SPCS,38778,ASTRA 2F,PAYLOAD,U,12051A,2023-06-08 08:02:57,746112,1.00270936,0.0001099,0.0582,244.7416,277.0575,243.5553,0,999,3921,0,1.5e-06,0,3927919,0 ASTRA 2F,1 38778U 12051A   23159.33539058  .00000150  00000-0  00000+0 0  9993,2 38778   0.0582 244.7416 0001099 277.0575 243.5553  1.00270936 39210,2012-051A,38778,42164.97,1436.109,35791.469,35782.201,0
GENERATED VIA SPACETRACK.ORG API,18 SPCS,38778,ASTRA 2F,PAYLOAD,U,12051A,2023-06-08 08:02:57,746112,1.00270936,0.0001099,0.0582,244.7416,277.0575,243.5553,0,999,3004,0,1.5e-06,0,3928007,0 ASTRA 2F,1 38778U 12051A   23159.33539058  .00000150  00000-0  00000-0 0  9994,2 38778   0.0582 244.7416 0001099 277.0575 243.5553  1.00270936 30042,2012-051A,38778,42164.97,1436.109,35791.469,35782.201,0
GENERATED VIA SPACETRACK.ORG API,18 SPCS,38778,ASTRA 2F,PAYLOAD,U,12051A,2023-06-09 08:07:51,318624,1.0027143,0.0001149,0.0561,242.7964,281.8188,242.9497,0,999,3922,0,1.48e-06,0,3928756,0 ASTRA 2F,1 38778U 12051A   23160.33878841  .00000148  00000-0  00000+0 0  9998,2 38778   0.0561 242.7964 0001149 281.8188 242.9497  1.00271430 39223,2012-051A,38778,42164.831,1436.102,35791.541,35781.852,0
GENERATED VIA SPACETRACK.ORG API,18 SPCS,38778,ASTRA 2F,PAYLOAD,U,12051A,2023-06-09 08:07:51,318624,1.0027143,0.0001149,0.0561,242.7964,281.8188,242.9497,0,999,3005,0,1.48e-06,0,3928876,0 ASTRA 2F,1 38778U 12051A   23160.33878841  .00000148  00000-0  00000-0 0  9999,2 38778   0.0561 242.7964 0001149 281.8188 242.9497  1.00271430 30055,2012-051A,38778,42164.831,1436.102,35791.541,35781.852,0
GENERATED VIA SPACETRACK.ORG API,18 SPCS,38778,ASTRA 2F,PAYLOAD,U,12051A,2023-06-09 20:10:47,288640,1.00271687,0.000117,0.0551,241.7903,284.2574,62.7448,0,999,3006,0,1.47e-06,0,3929125,0 ASTRA 2F,1 38778U 12051A   23160.84082510  .00000147  00000-0  00000-0 0  9994,2 38778   0.0551 241.7903 0001170 284.2574  62.7448  1.00271687 30065,2012-051A,38778,42164.759,1436.098,35791.558,35781.691,0
GENERATED VIA SPACETRACK.ORG API,18 SPCS,38778,ASTRA 2F,PAYLOAD,U,12051A,2023-06-10 08:11:42,715968,1.00271961,0.0001195,0.0542,240.7633,286.6643,242.0899,0,999,3923,0,1.47e-06,0,3929632,0 ASTRA 2F,1 38778U 12051A   23161.34146662  .00000147  00000-0  00000+0 0  9998,2 38778   0.0542 240.7633 0001195 286.6643 242.0899  1.00271961 39230,2012-051A,38778,42164.683,1436.094,35791.586,35781.509,0
GENERATED VIA SPACETRACK.ORG API,18 SPCS,38778,ASTRA 2F,PAYLOAD,U,12051A,2023-06-10 08:11:42,715968,1.00271961,0.0001195,0.0542,240.7633,286.6643,242.0899,0,999,3006,0,1.47e-06,0,3929709,0 ASTRA 2F,1 38778U 12051A   23161.34146662  .00000147  00000-0  00000-0 0  9999,2 38778   0.0542 240.7633 0001195 286.6643 242.0899  1.00271961 30062,2012-051A,38778,42164.683,1436.094,35791.586,35781.509,0
GENERATED VIA SPACETRACK.ORG API,18 SPCS,38778,ASTRA 2F,PAYLOAD,U,12051A,2023-06-10 16:49:24,785184,1.00272163,0.0001205,0.0537,240.0431,288.3432,10.9112,0,999,3007,0,1.47e-06,0,3929969,0 ASTRA 2F,1 38778U 12051A   23161.70098131  .00000147  00000-0  00000-0 0  9996,2 38778   0.0537 240.0431 0001205 288.3432  10.9112  1.00272163 30078,2012-051A,38778,42164.626,1436.091,35791.572,35781.41,0
GENERATED VIA SPACETRACK.ORG API,18 SPCS,38778,ASTRA 2F,PAYLOAD,U,12051A,2023-06-10 21:59:06,276768,1.00272283,0.0001223,0.0531,239.416,289.6717,87.8451,0,999,3007,0,1.47e-06,0,3930529,0 ASTRA 2F,1 38778U 12051A   23161.91604487  .00000147  00000-0  00000-0 0  9996,2 38778   0.0531 239.4160 0001223 289.6717  87.8451  1.00272283 30075,2012-051A,38778,42164.592,1436.09,35791.614,35781.301,0
GENERATED VIA SPACETRACK.ORG API,18 SPCS,38778,ASTRA 2F,PAYLOAD,U,12051A,2023-06-11 17:24:43,943904,1.00272759,0.0001253,0.052,237.9349,293.1324,18.0727,0,999,3924,0,1.48e-06,0,3930674,0 ASTRA 2F,1 38778U 12051A   23162.72550861  .00000148  00000-0  00000+0 0  9992,2 38778   0.0520 237.9349 0001253 293.1324  18.0727  1.00272759 39240,2012-051A,38778,42164.459,1436.083,35791.607,35781.041,0
GENERATED VIA SPACETRACK.ORG API,18 SPCS,38778,ASTRA 2F,PAYLOAD,U,12051A,2023-06-11 22:26:42,730656,1.00272884,0.0001269,0.0515,237.2392,294.6393,92.9641,0,999,3008,0,1.48e-06,0,3930737,0 ASTRA 2F,1 38778U 12051A   23162.93521679  .00000148  00000-0  00000-0 0  9991,2 38778   0.0515 237.2392 0001269 294.6393  92.9641  1.00272884 30082,2012-051A,38778,42164.424,1436.081,35791.64,35780.938,0
GENERATED VIA SPACETRACK.ORG API,18 SPCS,38778,ASTRA 2F,PAYLOAD,U,12051A,2023-06-12 13:33:13,307904,1.00273256,0.0001296,0.0509,235.8294,297.3292,318.9352,0,999,3009,0,1.49e-06,0,3931287,0 ASTRA 2F,1 38778U 12051A   23163.56473736  .00000149  00000-0  00000-0 0  9992,2 38778   0.0509 235.8294 0001296 297.3292 318.9352  1.00273256 30093,2012-051A,38778,42164.32,1436.076,35791.649,35780.72,0
GENERATED VIA SPACETRACK.ORG API,18 SPCS,38778,ASTRA 2F,PAYLOAD,U,12051A,2023-06-12 20:26:09,659616,1.00273445,0.0001315,0.0503,235.4674,298.559,61.5864,0,999,3009,0,1.5e-06,0,3931605,0 ASTRA 2F,1 38778U 12051A   23163.85150069  .00000150  00000-0  00000-0 0  9997,2 38778   0.0503 235.4674 0001315 298.5590  61.5864  1.00273445 30090,2012-051A,38778,42164.267,1436.073,35791.676,35780.587,0
GENERATED VIA SPACETRACK.ORG API,18 SPCS,38778,ASTRA 2F,PAYLOAD,U,12051A,2023-06-13 01:38:42,758016,1.0027358,0.0001329,0.0505,234.2909,300.5947,139.0806,0,999,3926,0,1.5e-06,0,3931796,0 ASTRA 2F,1 38778U 12051A   23164.06855044  .00000150  00000-0  00000+0 0  9995,2 38778   0.0505 234.2909 0001329 300.5947 139.0806  1.00273580 39260,2012-051A,38778,42164.229,1436.071,35791.697,35780.49,0
GENERATED VIA SPACETRACK.ORG API,18 SPCS,38778,ASTRA 2F,PAYLOAD,U,12051A,2023-06-13 11:55:09,213024,1.00273825,0.0001348,0.0501,232.9933,302.4359,293.0723,0,999,3010,0,1.51e-06,0,3932134,0 ASTRA 2F,1 38778U 12051A   23164.49663441  .00000151  00000-0  00000-0 0  9992,2 38778   0.0501 232.9933 0001348 302.4359 293.0723  1.00273825 30102,2012-051A,38778,42164.16,1436.068,35791.709,35780.341,0
GENERATED VIA SPACETRACK.ORG API,18 SPCS,38778,ASTRA 2F,PAYLOAD,U,12051A,2023-06-13 20:31:14,816640,1.0027407,0.0001367,0.0496,232.3647,303.9129,61.6033,0,999,3010,0,1.52e-06,0,3932371,0 ASTRA 2F,1 38778U 12051A   23164.85503260  .00000152  00000-0  00000-0 0  9995,2 38778   0.0496 232.3647 0001367 303.9129  61.6033  1.00274070 30109,2012-051A,38778,42164.091,1436.064,35791.72,35780.193,0
GENERATED VIA SPACETRACK.ORG API,18 SPCS,38778,ASTRA 2F,PAYLOAD,U,12051A,2023-06-14 12:00:09,357984,1.00274453,0.0001394,0.0495,229.9764,307.6454,293.1284,0,999,3927,0,1.53e-06,0,3932867,0 ASTRA 2F,1 38778U 12051A   23165.50010831  .00000153  00000-0  00000+0 0  9995,2 38778   0.0495 229.9764 0001394 307.6454 293.1284  1.00274453 39274,2012-051A,38778,42163.984,1436.059,35791.727,35779.971,0
GENERATED VIA SPACETRACK.ORG API,18 SPCS,38778,ASTRA 2F,PAYLOAD,U,12051A,2023-06-14 12:00:09,357984,1.00274453,0.0001394,0.0495,229.9764,307.6454,293.1284,0,999,3011,0,1.53e-06,0,3932965,0 ASTRA 2F,1 38778U 12051A   23165.50010831  .00000153  00000-0  00000-0 0  9996,2 38778   0.0495 229.9764 0001394 307.6454 293.1284  1.00274453 30118,2012-051A,38778,42163.984,1436.059,35791.727,35779.971,0
